<?xml version="1.0" encoding="UTF-8"?>
<kml xmlns="http://www.opengis.net/kml/2.2" xmlns:gx="http://www.google.com/kml/ext/2.2" xmlns:kml="http://www.opengis.net/kml/2.2" xmlns:atom="http://www.w3.org/2005/Atom">
<Document>
	<name>24AS111B2059.kml</name>
	<open>1</open>
	<atom:link rel="app" href="https://www.google.com/earth/about/versions/#earth-pro" title="Google Earth Pro 7.3.7.1155"></atom:link>
	<StyleMap id="msn_ylw-pushpin">
		<Pair>
			<key>normal</key>
			<styleUrl>#sn_ylw-pushpin</styleUrl>
		</Pair>
		<Pair>
			<key>highlight</key>
			<styleUrl>#sh_ylw-pushpin</styleUrl>
		</Pair>
	</StyleMap>
	<Style id="sh_ylw-pushpin">
		<IconStyle>
			<scale>1.2</scale>
		</IconStyle>
		<BalloonStyle>
		</BalloonStyle>
	</Style>
	<Style id="sn_ylw-pushpin">
		<BalloonStyle>
		</BalloonStyle>
	</Style>
	<Placemark>
		<name>El Carretero Parte Alta 05282VT05 (150M) </name>
		<LineString>
			<coordinates>
				-75.66674987642952,5.94787153297118,1561.884765625 -75.66675520484591,5.947875234487941,1560.6923828125 -75.66676356142098,5.947881421138873,1560.02001953125 -75.66677303925722,5.947888972637777,1560.02001953125 -75.66678757912335,5.947898946743731,1560.86328125 -75.66680523667522,5.947911063467599,1560.809326171875 -75.66682447124636,5.947923708047103,1561.025390625 -75.66684202574773,5.947935379518206,1561.025390625 -75.66685768145452,5.947946046190052,1561.603759765625 -75.66687221358539,5.947957260333158,1560.9384765625 -75.6668860695342,5.94796834738069,1561.106689453125 -75.66689937510341,5.947978900258167,1561.45458984375 -75.66691286641586,5.947991072229466,1561.45458984375 -75.66692828852173,5.948005514698755,1560.990478515625 -75.66694577957247,5.948023289287374,1560.941650390625 -75.66696302573817,5.948041340778611,1560.545654296875 -75.66697789468351,5.94805836225458,1560.508544921875 -75.66699085939311,5.948074348361028,1560.508544921875 -75.66700300874767,5.948092650883308,1560.235595703125 -75.66701367180967,5.948111708481056,1559.84033203125 -75.66702272432074,5.948133181097677,1559.416748046875 -75.66702987135936,5.948154743117851,1559.416748046875 -75.66703531141563,5.948174469837222,1558.96435546875 -75.66703917661027,5.948196082885662,1558.3564453125 -75.66704178144823,5.948212393934567,1558.352783203125 -75.66704422222864,5.948229850617849,1558.356689453125 -75.66704611988635,5.948238650995524,1558.3583984375 -75.66704707915558,5.948243362609367,1558.3583984375 -75.66704807191283,5.948246730631893,1558.34912109375 -75.66704871380593,5.948249144834088,1558.352294921875 -75.66704926734545,5.94825102101942,1558.35205078125 -75.66704963379244,5.948252520112611,1558.35205078125 -75.6670498907807,5.948253632896518,1558.35205078125 -75.66704987260124,5.948254249145637,1558.346435546875 -75.667049838251,5.948254659868574,1558.341796875 -75.66704938598886,5.94825607144681,1558.2353515625 -75.66704447314885,5.948267470431362,1557.94482421875 -75.66703210422445,5.948289995501017,1557.318359375 -75.6670290191652,5.948294744180941,1557.318359375 -75.66702514533328,5.948300644793123,1556.462890625 -75.66701755778175,5.948310978562219,1555.76904296875 -75.66700631897997,5.948324873946911,1555.0341796875 -75.66698756986071,5.948346444282288,1555.095458984375 -75.66696692302341,5.948370443843651,1555.095458984375 -75.66694723655385,5.948389202466506,1555.0546875 -75.66692902463511,5.948404918335406,1554.919189453125 -75.66690968602019,5.948417991740263,1554.206298828125 -75.6668892107065,5.948430508414622,1553.297607421875 -75.66686855592575,5.948442692653004,1553.297607421875 -75.6668480966366,5.948453022175943,1552.4677734375 -75.66682647629855,5.948462890505203,1551.751953125 -75.66680452464267,5.948471932725063,1551.458984375 -75.66678108436022,5.94848087254864,1551.458984375 -75.66675789386746,5.948489757135072,1550.5478515625 -75.666735445664,5.948497109576802,1550.2236328125 -75.66671514510016,5.948503374242271,1549.32177734375 -75.66669592135905,5.948508822840815,1549.32177734375 -75.66667570141909,5.948514623009773,1548.42529296875 -75.66665180675267,5.948520863371752,1547.058959960938 -75.66662847985599,5.948528175196462,1546.87255859375 -75.66660647825567,5.948535233946222,1545.934936523438 -75.66658414075172,5.948539142386328,1545.934936523438 -75.66656280748379,5.948545088189086,1545.915771484375 -75.66654089275387,5.948551315162709,1546.07373046875 -75.66651733258536,5.948559726396346,1546.132202148438 -75.66649041316903,5.948570610627306,1545.70361328125 -75.66646499974634,5.948582869347584,1545.46435546875 -75.6664431038258,5.948595965964003,1545.29052734375 -75.66642356957428,5.948609360875615,1545.29052734375 -75.66640339482446,5.948626606392276,1545.011108398438 -75.6663863012952,5.948643162359452,1545.011108398438 -75.66637367745584,5.948661750662372,1545.51220703125 -75.66636491106544,5.94868000006056,1544.93896484375 -75.66635884430015,5.948697348852864,1545.91455078125 
			</coordinates>
		</LineString>
	</Placemark>
	<Placemark>
		<name>Sabaletas - el Plan 05282VT06 (50m)</name>
		<LineString>
			<coordinates>
				-75.67402353798568,5.944431588482416,1535.89892578125 -75.67400264319517,5.944437020929346,1535.92236328125 -75.67398257372533,5.944441187362753,1535.241821289063 -75.67396423324844,5.944444491686536,1536.251708984375 -75.67394084275506,5.944451800323352,1536.756469726562 -75.67391571808247,5.944460036658585,1537.680297851563 -75.6739022974004,5.944463564460016,1537.680297851563 -75.67388821773477,5.944469024714705,1537.128540039063 -75.67387386866982,5.944474540331682,1537.128540039063 -75.67385545206184,5.944481509042005,1537.036499023438 -75.67383618173727,5.944487663544708,1537.282104492188 -75.67381554211559,5.94449312142749,1537.45556640625 -75.67379388217415,5.944497660358276,1537.716064453125 -75.67377106551562,5.94450300978131,1538.449829101563 -75.67374778966109,5.944507801928558,1540.285278320313 -75.67372577233373,5.944511776645188,1541.444091796875 -75.6737034023452,5.944515350268007,1541.444091796875 -75.67368033289443,5.944517071257478,1541.056396484375 -75.67365582802219,5.944518442808393,778.8999633789063 -75.67362861916814,5.944517697907683,778.8999633789063 -75.67360379674112,5.944515509858052,778.8999633789063 -75.67358596803501,5.944510013313891,778.8999633789063 -75.67357176467924,5.944503284981547,778.8999633789063 -75.67355869914699,5.944495492003103,778.8999633789063 -75.67354342139656,5.944483142950787,778.8999633789063 -75.67352822444083,5.944468230921362,778.8999633789063 -75.67351450659682,5.944451929341034,778.8999633789063 -75.67350162257824,5.944436617114246,778.8999633789063 -75.67348905053758,5.944421632979055,778.8999633789063 -75.67347623852754,5.944406419131825,778.8999633789063 -75.67346053162584,5.944385742544935,778.8999633789063 -75.6734428859762,5.944362720132832,778.8999633789063 -75.67341708241602,5.944330329513755,778.8999633789063 -75.67339485234338,5.944303384247103,778.8999633789063 -75.67337424725875,5.944281536605978,778.8999633789063 -75.67335760394148,5.944262966637799,778.8999633789063 -75.67334320699428,5.944246586133756,778.8999633789063 -75.67332957606872,5.944232506620858,778.8999633789063 -75.67331418870796,5.944216671023492,778.8999633789063 -75.67329840795323,5.944201763693454,778.8999633789063 -75.67328639444519,5.944191210453429,778.8999633789063 -75.67327545565192,5.944181936275371,778.8999633789063 -75.67326812171542,5.944175386037514,778.8999633789063 -75.6732635339832,5.944170443405088,778.8999633789063 
			</coordinates>
		</LineString>
	</Placemark>
	<Placemark>
		<name>Sabaletas - el Plan 05282VT06 (50m)</name>
		<LineString>
			<coordinates>
				-75.67514236985549,5.960046446633804,1353.300048828125 -75.67514406529897,5.9600497875829,1353.300048828125 -75.67514734582021,5.960057763326891,1353.300048828125 -75.67514927068883,5.960066104888471,1353.300048828125 -75.67515040990394,5.960072174742274,1353.300048828125 -75.67515469235143,5.960084252282645,1353.300048828125 -75.67515882663808,5.960099028133034,1353.300048828125 -75.67516269805552,5.960114352077415,1353.300048828125 -75.67516695240315,5.960134634206223,1353.300048828125 -75.67517078937868,5.960153302930221,1353.300048828125 -75.67517439887656,5.960171037786233,1353.300048828125 -75.67518088590661,5.960192122603525,1353.300048828125 -75.67518792311793,5.960212621613001,1353.300048828125 -75.675196553869,5.960235049535274,1353.300048828125 -75.67520672943535,5.96025903916702,1353.300048828125 -75.67521563190809,5.960281153438726,1353.300048828125 -75.67522410847262,5.960301533219469,1353.300048828125 -75.67523396653098,5.960320831439236,1353.300048828125 -75.67524321554264,5.960336272576823,1353.300048828125 -75.67525342430453,5.9603513339776,1353.300048828125 -75.67526317499325,5.960366765549988,1353.300048828125 -75.67527248292073,5.960382241831119,1353.300048828125 -75.67528068921496,5.960396652530349,1353.300048828125 -75.67528801224272,5.960410989926327,1353.300048828125 -75.67529523973121,5.960425680988101,1353.300048828125 -75.67530237093881,5.960442032346858,1353.300048828125 -75.67530892451681,5.960458058590921,1353.300048828125 -75.67531493270364,5.960473641912147,1353.300048828125 -75.67531960936596,5.960487189524944,1353.300048828125 -75.67532400410781,5.960501624468756,1337.267944335938 -75.67532729395909,5.960517257793652,1336.045043945313 -75.67532944550987,5.96053356989052,1335.481323242188 -75.67533082558255,5.960551451618707,1336.12841796875 -75.67533175173723,5.960570030131811,1335.768310546875 -75.67533275911623,5.960587787488597,1335.518920898438 -75.67533346674561,5.960603612086839,1336.009033203125 -75.67533441626607,5.960618427377158,1336.009033203125 -75.67533534407498,5.960634619653111,1335.788330078125 -75.67533616931453,5.960652016170183,1335.569091796875 -75.6753366533688,5.960668897934324,1335.491455078125 -75.67533698384464,5.960683395723767,1335.518798828125 -75.6753367429116,5.960696863161378,1334.821533203125 -75.67533591817769,5.960710241133595,1334.821533203125 -75.67533392267153,5.960726872684284,1334.519653320313 -75.67533132226902,5.960743272662998,1334.595703125 -75.67532766665357,5.960759973842921,1334.482299804688 -75.6753242395628,5.960774536773606,1334.528930664063 -75.67532038571841,5.960788900353952,1334.417114257813 -75.67531619651682,5.960801993653195,1334.417114257813 -75.67531245850886,5.960813395176505,1335.066284179688 -75.67531021319962,5.960823180427398,1335.159301757813 -75.67530968960412,5.960828105891157,1335.156372070313 -75.67530956866572,5.960831160940316,1335.162109375 -75.67530930270676,5.960833076546532,1335.164672851563 -75.67530852351108,5.960833881026992,1334.840087890625 -75.6753077207739,5.960834733334203,1334.656982421875 -75.67530573770324,5.960836968412328,1334.193603515625 -75.67530003340039,5.960845279697193,1334.275024414063 -75.67529232680788,5.96085789380979,1333.644287109375 -75.6752861800626,5.960869707989638,1333.649536132813 -75.67528090474799,5.960880267770312,1333.953979492188 -75.67527660907636,5.960888583014605,1333.539184570313 -75.67527571332003,5.96089383151222,1333.492553710938 
			</coordinates>
		</LineString>
	</Placemark>
	<Placemark>
		<name>El Porvenir 05282VT35 (150m)</name>
		<styleUrl>#msn_ylw-pushpin</styleUrl>
		<LineString>
			<coordinates>
				-75.67639196994192,5.901080640998105,1838.2 -75.67638902801804,5.901080914802693,1838.2 -75.67638662606984,5.901080007836102,1908.800048828125 -75.67638508506559,5.901078120481346,1908.800048828125 -75.67638499002655,5.901075021500033,1908.800048828125 -75.67638657140473,5.901071647126463,1839.3 -75.67639054676857,5.901067230967829,1840.1 -75.67639655621549,5.901062009204963,1841.2 -75.67640451836581,5.901055320920447,1842.1 -75.67641392847156,5.901047502500304,1842.6 -75.67642391647546,5.901039294720915,1843 -75.67643542953287,5.901031998807507,1842.8 -75.67644816500639,5.901024343829375,1842.9 -75.67646161860235,5.90101364917869,1842.9 -75.67647670957714,5.901001564283326,1843 -75.67649203833025,5.900989674114937,1843.3 -75.67650709262409,5.900978616933501,1843.7 -75.67651862768913,5.900969655414116,1843.8 -75.67652665522799,5.900962387876184,1844.1 -75.67653117371057,5.900958316196303,1844.1 -75.67653381453776,5.900956090085678,1845.1 -75.67653566953203,5.900954478167152,1845.1 -75.6765370597286,5.900953273583296,1845.1 -75.6765395264121,5.90095128859488,1845.4 -75.67654303352624,5.900948712815342,1845.4 -75.67654767289977,5.900945901957413,1845.5 -75.67655302700899,5.900942939208529,1845.8 -75.67655886781506,5.900939706083224,1845.8 -75.67656492840075,5.900936392271381,1845.6 -75.67657162540027,5.900932716794641,1845.2 -75.67657933762155,5.900928020448228,1845.2 -75.6765874573871,5.90092283109739,1845.2 -75.67659539954361,5.900916999637679,1845.6 -75.67660352264851,5.900910149556902,1845.7 -75.67661238807609,5.900902551226516,1845.2 -75.67662109404085,5.90089520310313,1845.1 -75.67662972829915,5.900888255845913,1845 -75.67663871467326,5.900881056800527,1844.6 -75.67664829146177,5.900872821984803,1844.6 -75.67665651416614,5.900865789004446,1844.4 -75.67666450460301,5.900860424012826,1844.3 -75.67666907686905,5.900858959531549,1844.5 -75.67667160371127,5.900858627333903,1844.7 -75.67667330424541,5.900858450801425,1844.7 -75.67667450647573,5.900858281991054,1844.7 -75.67667565399992,5.900857755295076,1845.4 -75.6766769613732,5.900856763528809,1845.5 -75.67667863837599,5.900855163340589,1845.5 -75.67668083816412,5.900852651763493,1845.6 -75.6766833797203,5.90084974084952,1845.5 -75.67668639823357,5.900846342897281,1845.5 -75.67669081721708,5.900841689352361,1845.8 -75.67669667988932,5.900835962790089,1846.4 -75.67670269717225,5.900829699411947,1846.4 -75.67671095818834,5.900822540422491,1846.6 -75.67672137606233,5.900815184402631,1847 -75.67673368021372,5.900807677100209,1847.3 -75.67674710175739,5.900800061885645,1847.6 -75.67676177428301,5.900791881855129,1847.7 -75.67677437914644,5.900784668485011,1848 -75.67678334801835,5.900779997398814,1849.5 -75.67678790725464,5.900777828251309,1849.8 -75.6767905438391,5.900776818669826,1849.9 -75.67679237745615,5.900776115162947,1849.9 -75.67679368290459,5.900775494817783,1849.9 -75.67679490051709,5.900774774518664,1849.9 -75.67679568066796,5.900774439782646,1849.9 -75.67679712102937,5.900773060442909,1851.7 -75.6767998033589,5.900770179214396,1851.7 -75.67680376342514,5.900765199840232,1851.8 -75.676810177189,5.900757744350392,1851.8 -75.67681898941639,5.900748622225485,1851.9 -75.67682911133275,5.900738350806566,1852.2 -75.67683991783534,5.900728179290582,1852 -75.6768504964077,5.900717954278579,1852.3 -75.67685993508583,5.900708581325476,1852.7 -75.67686851072779,5.900700556317187,1853.1 -75.6768763326963,5.900692954225289,1853.5 -75.67688492930874,5.900683913688507,1853.7 -75.67689436395781,5.900673493816821,1853.7 -75.67690311865366,5.900663850819631,1853.8 -75.67691116395572,5.900654345366068,1853.7 -75.67691920283646,5.900643966022887,1853.6 -75.67692720306674,5.900633793115018,1853.7 -75.676934714515,5.900624695240539,1853.5 -75.6769412140052,5.900616861887514,1853.3 -75.67694750336102,5.900609260265091,1853.3 -75.67695433127778,5.900601982967636,1853.2 -75.67696094896763,5.900596686890859,1853.5 -75.67696759770068,5.900592266248939,1853.8 -75.67697425348858,5.900587734977299,1853.8 -75.67698111633162,5.900583355947013,1854 -75.67698821334324,5.90057875278394,1854.4 -75.6769954840303,5.900574538386906,1854.2 -75.6770032937859,5.900570714769174,1854.6 -75.67701103265838,5.900567362422235,1854.5 -75.67702058074141,5.900563184714685,1854.5 -75.67702988861977,5.900559405169843,1854.8 -75.67703785739646,5.900555774952561,1855 -75.67704527263604,5.900552088889693,1855 -75.6770500533171,5.900549667895856,1855.9 -75.67705241502287,5.900548729401422,1856.2 
			</coordinates>
		</LineString>
	</Placemark>
	<Placemark>
		<name>La Cordillera 05282VT10 (100m)</name>
		<styleUrl>#msn_ylw-pushpin</styleUrl>
		<LineString>
			<coordinates>
				-75.72603893698123,5.923655543038824,1931.3 -75.72603852646479,5.923655830512351,1931.3 -75.72603819439361,5.923656063052791,1931.3 -75.72603792771754,5.92365624979881,1931.3 -75.72603769749196,5.923656411019542,1931.3 -75.72603904994884,5.923657722416319,1935 -75.72604073030519,5.923659013361315,1935.7 -75.72604232806513,5.923660187580979,1935.7 -75.72604488080677,5.923661388974342,1936.5 -75.72604984496192,5.923663337911386,1936.9 -75.72605412741368,5.923664670426652,1937 -75.72606023273281,5.923666777089026,1937.2 -75.7260703117412,5.923670031947012,1937.7 -75.72608325505597,5.923674476634197,1937.8 -75.72609900570659,5.923679706041989,1938.4 -75.72611323341238,5.923683532715349,1938.7 -75.72612396422372,5.92368621555013,1938.6 -75.72613393144826,5.92368812394137,1938.8 -75.72614441573678,5.923689897559214,1938.8 -75.72615598072805,5.923691467770626,1938.7 -75.72616648044132,5.923692535866697,1938.2 -75.72617719328672,5.923694412599277,1937.5 -75.72618810326954,5.923697109239548,1936.6 -75.72619749428752,5.923699742736188,1936 -75.72620579812862,5.923701273819695,1935.5 -75.72621171701735,5.923702450918307,1935.3 -75.72621657342162,5.923704155967654,1935.1 -75.72622083571618,5.923706797522287,1934.5 -75.72622563784252,5.923710626712028,1934 -75.72623113483547,5.923716376247886,1933.9 -75.72623625454708,5.923723006697345,1933.5 -75.72624157729521,5.923731764891729,1933.4 -75.72624692684833,5.923742652987135,1933.2 -75.72625170579734,5.923753205953585,1932.9 -75.72625619322758,5.923763396963698,1932.8 -75.72626070505947,5.923772314223762,1932.9 -75.72626471882398,5.923780823532159,1933 -75.72626742054037,5.923789442896869,1932.9 -75.72626944026334,5.923797906577834,1932.8 -75.72627036250414,5.9238058524896,1932.6 -75.72627072360363,5.923813708041769,1932.5 -75.72627107999267,5.923824140801196,1932.3 -75.72627256414741,5.92383430525901,1932.1 -75.72627616707982,5.923845754198703,1932 -75.72628118009982,5.923855879792324,1931.8 -75.72628785730954,5.923865676022199,1931.8 -75.72629524141638,5.923874584120233,1931.7 -75.726302995837,5.923882626633866,1931.6 -75.72631232745999,5.923890877204387,1931.6 -75.72632194521587,5.923897860814786,1931 -75.72633292842072,5.923904845996729,1930.9 -75.72634401108444,5.923910868502657,1930.8 -75.72635372781598,5.923914609376275,1930.7 -75.72636278903896,5.923916690928758,1930.8 -75.72637228847184,5.92391660513007,1930.9 -75.72638061002525,5.923915117239511,1931 -75.72638914300346,5.923911470379971,1931.1 -75.72639668155342,5.923906153815313,1931.1 -75.72640469551084,5.92389997813641,1931.1 -75.7264122229267,5.923894252285204,1931.1 -75.72642011143668,5.923889273373346,1931.1 -75.72642731874396,5.923884130299983,1931.1 -75.72643286128033,5.923878796068903,1931.1 -75.72643682973913,5.923872453799553,1930.8 -75.72643788089376,5.923864871377302,1930.6 -75.72643714502743,5.923856278078715,1930.6 -75.72643569414912,5.923845773695747,1930.4 -75.72643399672029,5.923834115663147,1930.4 -75.72643199781473,5.923823544433841,1930.3 -75.72643058076021,5.923813252985433,1930.3 -75.72643046961461,5.92380237867323,1930.4 -75.72643166026825,5.923791574810153,1930.1 -75.72643336592817,5.923780426864474,1929.9 -75.72643540739271,5.923768577881682,1929.9 -75.72643769787305,5.923757602435553,1929.8 -75.72643978340903,5.923747206528244,1930 -75.72644197484468,5.923736849524208,1929.9 -75.72644379227165,5.923728056865954,1929.6 -75.72644595354744,5.92372028506743,1929.6 -75.7264485387025,5.923713240926123,1929.8 -75.72645173095076,5.9237061309575,1930.3 -75.72645564801735,5.923698428651132,1930.3 -75.72645977933647,5.923689820775326,1930.4 -75.72646478770797,5.923678957574639,1930.3 -75.7264704603361,5.923667338269662,1929.7 -75.72647606199598,5.923656834738947,1929.8 -75.72647964607732,5.923649373286998,1930.1 -75.72648245448535,5.923643003057854,1930 -75.72648474924432,5.923636047212942,1929.9 -75.7264871194796,5.923629622185862,1929.6 -75.72648906509403,5.923623765929917,1929.5 -75.7264899945549,5.923618291328552,1928.9 -75.72648995039305,5.92361339033188,1928 -75.72648985284312,5.923608519186037,1927.7 -75.72648857977822,5.923605230578315,1927.1 -75.72648745385986,5.923603450098178,1927 -75.72648657861677,5.92360231683336,1927 -75.72648613067267,5.923600829682059,1927.5 -75.72648694924241,5.923598180726144,1928.1 -75.72648919798087,5.923594437338519,1928.5 -75.72649303060921,5.923589545979229,1928.3 -75.72649797606995,5.923584055635184,1928.3 -75.72650411020017,5.923577720155056,1928.2 -75.72651197244703,5.923570194877231,1928.1 -75.7265193077687,5.923563238335285,1927.9 -75.72652492423401,5.923557338797079,1927.5 -75.72652860834947,5.923552373728886,1927.1 
			</coordinates>
		</LineString>
	</Placemark>
	<Placemark>
		<name>Calvario - la raya 05282VT51 (100M)</name>
		<LineString>
			<coordinates>
				-75.67319914698601,5.860695323317433,0 -75.67332454025745,5.860365801832705,0 -75.67347440868616,5.860225054742502,0 -75.67358270287514,5.860036947201594,0 -75.67367289215326,5.859953232655028,0 
			</coordinates>
		</LineString>
	</Placemark>
</Document>
</kml>
