<?xml version="1.0" encoding="UTF-8"?>
<kml xmlns="http://www.opengis.net/kml/2.2" xmlns:gx="http://www.google.com/kml/ext/2.2" xmlns:kml="http://www.opengis.net/kml/2.2" xmlns:atom="http://www.w3.org/2005/Atom">
<Document>
	<name>25AS111B2813</name>
	<open>1</open>
	<atom:link rel="app" href="https://www.google.com/earth/about/versions/#earth-pro" title="Google Earth Pro 7.3.7.1155"></atom:link>
	<StyleMap id="m_ylw-pushpin">
		<Pair>
			<key>normal</key>
			<styleUrl>#s_ylw-pushpin</styleUrl>
		</Pair>
		<Pair>
			<key>highlight</key>
			<styleUrl>#s_ylw-pushpin_hl</styleUrl>
		</Pair>
	</StyleMap>
	<Style id="s_ylw-pushpin">
		<IconStyle>
			<scale>1.1</scale>
			<Icon>
				<href>http://maps.google.com/mapfiles/kml/pushpin/ylw-pushpin.png</href>
			</Icon>
			<hotSpot x="20" y="2" xunits="pixels" yunits="pixels"/>
		</IconStyle>
		<LineStyle>
			<color>ffffaaaa</color>
			<width>2</width>
		</LineStyle>
	</Style>
	<Style id="s_ylw-pushpin_hl">
		<IconStyle>
			<scale>1.3</scale>
			<Icon>
				<href>http://maps.google.com/mapfiles/kml/pushpin/ylw-pushpin.png</href>
			</Icon>
			<hotSpot x="20" y="2" xunits="pixels" yunits="pixels"/>
		</IconStyle>
		<LineStyle>
			<color>ffffaaaa</color>
			<width>2</width>
		</LineStyle>
	</Style>
	<Placemark>
		<name>VÍA AUTOPISTA – ESCUELA PALMIRITA (05197VT13) 200 M</name>
		<styleUrl>#m_ylw-pushpin</styleUrl>
		<LineString>
			<tessellate>1</tessellate>
			<coordinates>
				-75.17381611121408,6.011311013525646,0 -75.17371258057156,6.011409232243996,0 -75.17361397599639,6.011485222450073,0 -75.17349445443581,6.011471640656051,0 -75.17342798635026,6.011479361222528,0 -75.17338193396996,6.011554442677715,0 -75.17339448093745,6.011640941003998,0 -75.17345815160084,6.011759741847107,0 -75.17349422986945,6.011862438675791,0 -75.17351564254646,6.012008560463236,0 -75.17350518922962,6.012088072725668,0 -75.17340850905255,6.012109317026145,0 -75.17329291475191,6.01207294019856,0 -75.17322141640457,6.012054915701733,0 -75.17311498138407,6.012013857114479,0 -75.17299649642,6.011960596258769,0 -75.17284232973904,6.011894401806678,0 
			</coordinates>
		</LineString>
	</Placemark>
</Document>
</kml>
