<?xml version="1.0" encoding="UTF-8"?>
<kml xmlns="http://www.opengis.net/kml/2.2" xmlns:gx="http://www.google.com/kml/ext/2.2" xmlns:kml="http://www.opengis.net/kml/2.2" xmlns:atom="http://www.w3.org/2005/Atom">
<Document>
	<name>25AS111B2781</name>
	<open>1</open>
	<atom:link rel="app" href="https://www.google.com/earth/about/versions/#earth-pro" title="Google Earth Pro 7.3.7.1155"></atom:link>
	<StyleMap id="m_ylw-pushpin">
		<Pair>
			<key>normal</key>
			<styleUrl>#s_ylw-pushpin</styleUrl>
		</Pair>
		<Pair>
			<key>highlight</key>
			<styleUrl>#s_ylw-pushpin_hl</styleUrl>
		</Pair>
	</StyleMap>
	<Style id="s_ylw-pushpin">
		<IconStyle>
			<scale>1.1</scale>
			<Icon>
				<href>http://maps.google.com/mapfiles/kml/pushpin/ylw-pushpin.png</href>
			</Icon>
			<hotSpot x="20" y="2" xunits="pixels" yunits="pixels"/>
		</IconStyle>
		<LineStyle>
			<color>ff0000ff</color>
			<width>3</width>
		</LineStyle>
	</Style>
	<Style id="s_ylw-pushpin_hl">
		<IconStyle>
			<scale>1.3</scale>
			<Icon>
				<href>http://maps.google.com/mapfiles/kml/pushpin/ylw-pushpin.png</href>
			</Icon>
			<hotSpot x="20" y="2" xunits="pixels" yunits="pixels"/>
		</IconStyle>
		<LineStyle>
			<color>ff0000ff</color>
			<width>3</width>
		</LineStyle>
	</Style>
	<Placemark>
		<name>Tramo 1</name>
		<styleUrl>#m_ylw-pushpin</styleUrl>
		<LineString>
			<tessellate>1</tessellate>
			<coordinates>
				-75.89734330536973,5.680030745003513,0 -75.89745336186664,5.68007013636676,0 -75.8975526123569,5.680126087552036,0 -75.89760270145631,5.680210430939214,0 -75.89762572367378,5.680312680010903,0 -75.89757743721901,5.680572011819917,0 -75.89756957172111,5.680650609969309,0 -75.89759103515986,5.680727612771191,0 -75.8976034099379,5.680774553761951,0 
			</coordinates>
		</LineString>
	</Placemark>
	<Placemark>
		<name>Tramo 2</name>
		<styleUrl>#m_ylw-pushpin</styleUrl>
		<LineString>
			<tessellate>1</tessellate>
			<coordinates>
				-75.89548538738588,5.679408726161947,0 -75.89557813918157,5.679362894423548,0 -75.89571784198574,5.679338322399394,0 -75.89585410853056,5.679347352629684,0 -75.89591583676021,5.679379250917673,0 
			</coordinates>
		</LineString>
	</Placemark>
	<Placemark>
		<name>Tramo 3</name>
		<styleUrl>#m_ylw-pushpin</styleUrl>
		<LineString>
			<tessellate>1</tessellate>
			<coordinates>
				-75.89253132268556,5.680722014352682,0 -75.89258098255084,5.680654483350653,0 -75.89264814889981,5.680538076517503,0 -75.89270933357733,5.680460124384755,0 -75.89275452786106,5.680449001459486,0 -75.89284230187275,5.680459441064439,0 
			</coordinates>
		</LineString>
	</Placemark>
</Document>
</kml>
