<?xml version="1.0" encoding="UTF-8"?><kml xmlns="http://www.opengis.net/kml/2.2"><Document><Placemark><name>KM 00+500</name><description>LOMA DEL SOMBRERO COORDENADA FINAL
Latitud:    8°23'11.82&quot;N
Longitud:   76°14'38.75&quot;O</description><ExtendedData><Data name="name"><value>KM 00+500</value></Data><Data name="styleUrl"><value>#m_ylw-pushpin</value></Data><Data name="styleHash"><value>-f6b480</value></Data><Data name="styleMapHash"><value>[object Object]</value></Data><Data name="description"><value>LOMA DEL SOMBRERO COORDENADA FINAL
Latitud:    8°23'11.82&quot;N
Longitud:   76°14'38.75&quot;O</value></Data></ExtendedData><Point><coordinates>-76.24409722222222,8.386616666666667,0</coordinates></Point></Placemark><Placemark><name>KM 00+000</name><description>LOMA DEL SOMBRERO COORDENADA INICIAL
Latitud:  8°23'2.07&quot;N
Longitud:  76°14'50.20&quot;O</description><ExtendedData><Data name="name"><value>KM 00+000</value></Data><Data name="styleUrl"><value>#m_ylw-pushpin</value></Data><Data name="styleHash"><value>-f6b480</value></Data><Data name="styleMapHash"><value>[object Object]</value></Data><Data name="description"><value>LOMA DEL SOMBRERO COORDENADA INICIAL
Latitud:  8°23'2.07&quot;N
Longitud:  76°14'50.20&quot;O</value></Data></ExtendedData><Point><coordinates>-76.24727777777778,8.383908333333332,0</coordinates></Point></Placemark><Placemark><name>PLACA HUELLA LOMA DEL SOMBRERO</name><ExtendedData><Data name="name"><value>PLACA HUELLA LOMA DEL SOMBRERO</value></Data><Data name="styleUrl"><value>#msn_ylw-pushpin</value></Data><Data name="styleHash"><value>-3006e01e</value></Data><Data name="styleMapHash"><value>[object Object]</value></Data><Data name="stroke"><value>#00aaff</value></Data><Data name="stroke-opacity"><value>1</value></Data><Data name="stroke-width"><value>3.1</value></Data></ExtendedData><LineString><coordinates>-76.24727062169694,8.383926925094151,0 -76.24720083496827,8.384091475860012,0 -76.24703412631513,8.384269079013569,0 -76.24674864860862,8.38461268123413,0 -76.24646627363823,8.384959855431287,0 -76.24629803876232,8.385330744604577,0 -76.24597434463908,8.385969469282946,0 -76.24567621398832,8.386323097971719,0 -76.24543487046947,8.386396211516265,0 -76.24516109505367,8.386393306437414,0 -76.24481864170066,8.386397515363097,0 -76.24449983876845,8.386447710948334,0 -76.24433203111076,8.38649775710493,0 -76.24420246679438,8.386552428627498,0 -76.24409800469105,8.38661783705374,0</coordinates></LineString></Placemark></Document></kml>