<?xml version="1.0" encoding="UTF-8"?>
<kml xmlns="http://www.opengis.net/kml/2.2" xmlns:gx="http://www.google.com/kml/ext/2.2" xmlns:kml="http://www.opengis.net/kml/2.2" xmlns:atom="http://www.w3.org/2005/Atom">
<Document>
	<name>25AS111B2788</name>
	<open>1</open>
	<atom:link rel="app" href="https://www.google.com/earth/about/versions/#earth-pro" title="Google Earth Pro 7.3.7.1155"></atom:link>
	<StyleMap id="msn_ylw-pushpin">
		<Pair>
			<key>normal</key>
			<styleUrl>#sn_ylw-pushpin</styleUrl>
		</Pair>
		<Pair>
			<key>highlight</key>
			<styleUrl>#sh_ylw-pushpin</styleUrl>
		</Pair>
	</StyleMap>
	<Style id="sh_ylw-pushpin">
		<IconStyle>
			<scale>1.3</scale>
			<Icon>
				<href>http://maps.google.com/mapfiles/kml/pushpin/ylw-pushpin.png</href>
			</Icon>
			<hotSpot x="20" y="2" xunits="pixels" yunits="pixels"/>
		</IconStyle>
		<LineStyle>
			<color>ff0000ff</color>
			<width>5</width>
		</LineStyle>
	</Style>
	<Style id="sn_ylw-pushpin">
		<IconStyle>
			<scale>1.1</scale>
			<Icon>
				<href>http://maps.google.com/mapfiles/kml/pushpin/ylw-pushpin.png</href>
			</Icon>
			<hotSpot x="20" y="2" xunits="pixels" yunits="pixels"/>
		</IconStyle>
		<LineStyle>
			<color>ff0000ff</color>
			<width>5</width>
		</LineStyle>
	</Style>
	<Placemark>
		<name>Vereda Horizontes placa huella 100 metros</name>
		<styleUrl>#msn_ylw-pushpin</styleUrl>
		<LineString>
			<tessellate>1</tessellate>
			<coordinates>
				-75.24773030573806,6.217990503448712,0 -75.24769354379768,6.217987803423505,0 -75.24766122380436,6.217960522780531,0 -75.24765207898075,6.217924572495015,0 -75.2476453001624,6.217851915882016,0 -75.24763807562869,6.217787719003608,0 -75.24761833817929,6.217739863595452,0 -75.24759820901852,6.217695921875459,0 -75.2475684061877,6.217619500030728,0 -75.24756591517561,6.217586313186763,0 -75.247570629343,6.217571598263536,0 -75.24759006734246,6.217555337391189,0 -75.24761889545337,6.217526320378088,0 -75.24766574422189,6.217485617688344,0 -75.24768821618842,6.21745493544499,0 -75.2477035953228,6.217406995746752,0 -75.24770447814059,6.217371477887655,0 -75.2476804467105,6.217332381878045,0 -75.2476607816094,6.217308525501249,0 -75.24764549727909,6.217293747621348,0 -75.24762608887146,6.217282502703193,0 -75.24758843653923,6.217276433916463,0 -75.24757698352475,6.21727084517796,0 
			</coordinates>
		</LineString>
	</Placemark>
</Document>
</kml>
